OBJECT_NAME,OBJECT_ID,EPOCH,MEAN_MOTION,ECCENTRICITY,INCLINATION,RA_OF_ASC_NODE,ARG_OF_PERICENTER,MEAN_ANOMALY,EPHEMERIS_TYPE,CLASSIFICATION_TYPE,NORAD_CAT_ID,ELEMENT_SET_NO,REV_AT_EPOCH,BSTAR,MEAN_MOTION_DOT,MEAN_MOTION_DDOT
AMOS-4,2013-045A,2024-01-20T11:22:27.568416,1.00271611,.0002959,0.0473,263.4027,55.5717,35.9834,0,U,39237,999,3814,0,.11E-6,0
ASTRA 2E,2013-056A,2024-01-20T06:02:32.154720,1.00270573,.0002754,0.0573,349.8850,317.8647,290.4606,0,U,39285,999,3762,0,.155E-5,0
FM-6,2013-058A,2024-01-20T14:24:57.428352,1.00270363,.0000498,0.0040,1.2955,188.7123,29.5325,0,U,39360,999,3725,0,-.12E-6,0
RADUGA-1M 3,2013-062A,2024-01-20T11:13:48.773568,1.00270382,.0000806,3.7172,83.1082,66.7567,172.9024,0,U,39375,999,3729,0,.155E-5,0
SES-8,2013-071A,2024-01-20T13:10:32.836224,1.00271797,.0000977,0.0549,255.6739,50.3735,105.9972,0,U,39460,999,3561,0,-.265E-5,0
INMARSAT 5-F1,2013-073A,2024-01-20T11:21:42.454656,1.00271782,.0000098,0.0183,61.5891,287.1453,3.6199,0,U,39476,999,3677,0,.32E-6,0
TKSAT-1 (TUPAC KATARI),2013-075A,2024-01-20T14:04:59.406816,1.00272067,.0003387,0.0228,135.3795,164.5132,303.5887,0,U,39481,999,3678,0,-.19E-5,0
EXPRESS-AM5,2013-077A,2024-01-20T14:01:03.557280,1.00270169,.0001949,0.0129,330.9153,5.7832,133.0270,0,U,39487,999,3755,0,-.276E-5,0
GSAT-14,2014-001A,2024-01-20T11:24:57.943296,1.00271487,.0007108,0.0840,268.3421,11.2254,85.0008,0,U,39498,999,3657,0,-.73E-6,0
THAICOM 6,2014-002A,2024-01-20T11:26:13.131168,1.00272492,.0000884,0.0665,110.0449,184.4629,74.8481,0,U,39500,999,3664,0,-.117E-5,0
TDRS 12,2014-004A,2024-01-20T10:06:13.897152,1.00267893,.0002963,3.5566,359.7829,243.5570,346.5954,0,U,39504,999,3546,0,-.263E-5,0
ATHENA-FIDUS,2014-006B,2024-01-20T04:22:09.621120,1.00270385,.0001248,0.0247,116.4193,188.0953,277.8606,0,U,39509,999,3626,0,.158E-5,0
TURKSAT 4A,2014-007A,2024-01-20T11:15:49.074336,1.00268315,.0005026,0.0774,261.5813,19.3394,49.3674,0,U,39522,999,3616,0,.151E-5,0
EXPRESS-AT1,2014-010A,2024-01-20T09:36:34.210080,1.00273428,.0000432,0.0222,50.9159,263.5155,4.9831,0,U,39612,999,3623,0,.83E-6,0
EXPRESS-AT2,2014-010B,2024-01-20T13:50:42.489888,1.00271269,.0001353,0.0327,275.5036,359.6415,191.8027,0,U,39613,999,3569,0,-.277E-5,0
AMAZONAS 4A,2014-011A,2024-01-20T10:42:36.599616,1.00274020,.0003868,0.0421,207.4841,76.8604,281.5883,0,U,39616,999,3589,0,-.248E-5,0
ASTRA 5B,2014-011B,2024-01-20T06:01:09.448320,1.00268816,.0004684,0.0911,295.8340,356.8992,300.1733,0,U,39617,999,3585,0,.141E-5,0
IRNSS-1B,2014-017A,2024-01-16T17:56:29.351616,1.00272328,.0016955,29.2824,255.3927,180.6858,3.8030,0,U,39635,999,3593,0,.122E-5,0
KAZSAT-3,2014-023B,2024-01-20T09:37:19.322976,1.00270274,.0000314,0.0141,54.0545,296.9420,331.1095,0,U,39728,999,3363,0,.65E-6,0
EUTELSAT 3B,2014-030A,2024-01-20T09:21:31.958208,1.00271958,.0004964,0.0604,18.0271,223.3579,21.3249,0,U,39773,999,3525,0,.24E-6,0
ASIASAT 8 (AMOS-7),2014-046A,2024-01-20T05:53:15.764640,1.00271878,.0002099,0.0490,258.9502,44.3964,260.1920,0,U,40107,999,9333,0,-.29E-6,0
OPTUS 10,2014-054A,2024-01-19T16:53:54.951072,1.00272007,.0002863,0.0886,344.4605,290.7001,252.8824,0,U,40146,999,3421,0,-.143E-5,0
MEASAT-3B,2014-054B,2024-01-19T18:32:42.770400,1.00272095,.0002254,0.0276,10.3491,346.8722,131.1077,0,U,40147,999,3410,0,-.237E-5,0
LUCH (OLYMP-K 1),2014-058A,2024-01-20T17:51:09.763200,1.00271521,.0000904,0.0357,110.2783,210.5267,48.4991,0,U,40258,999,3413,0,-.137E-5,0
HIMAWARI-8,2014-060A,2024-01-20T14:01:03.488160,1.00270136,.0001183,0.0355,191.6159,100.8233,177.9126,0,U,40267,999,3395,0,-.272E-5,0
IRNSS-1C,2014-061A,2024-01-20T08:01:12.427968,1.00275182,.0017684,4.3017,108.7115,1.3445,212.3805,0,U,40269,999,3387,0,-.161E-5,0
INTELSAT 30 (IS-30),2014-062A,2024-01-19T08:22:42.089664,1.00271487,.0000984,0.0090,40.3883,317.8485,150.5793,0,U,40271,999,3377,0,-.145E-5,0
ARSAT 1,2014-062B,2024-01-20T01:22:02.375616,1.00271826,.0002021,0.0488,290.3168,351.4562,145.8460,0,U,40272,999,3379,0,-.255E-5,0
