39237,AMOS-4,2013,1436.1,-1.0,+,0.05,Active,1,GSO,Kazakhstan,Israel,Commercial/Military,Communications,Zenit,1 39237U 13045A   24020.47393019  .00000011  00000+0  00000+0 0  9991,2 39237   0.0473 263.4027 0002959  55.5717  35.9834  1.00271611 38146,1.00271611,0.0002959,GEO
39285,ASTRA 2E,2013,1436.12,6052.0,+,0.06,Active,1,GSO,Kazakhstan,SES,Commercial,Communications,Proton,1 39285U 13056A   24020.25176105  .00000155  00000+0  00000+0 0  9996,2 39285   0.0573 349.8850 0002754 317.8647 290.4606  1.00270573 37625,1.00270573,0.0002754,GEO
39360,FM-6,2013,1436.06,6020.0,+,0.04,Active,1,GSO,Kazakhstan,USA,Commercial,Communications,Proton,1 39360U 13058A   24020.60066468 -.00000012  00000+0  00000+0 0  9994,2 39360   0.0040   1.2955 0000498 188.7123  29.5325  1.00270363 37255,1.00270363,4.98e-05,GEO
39375,RADUGA-1M 3,2013,1436.11,2400.0,+,3.71,Active,1,GSO,Kazakhstan,Russia/USSR,Military,Communications,Proton,1 39375U 13062A   24020.46792562  .00000155  00000+0  00000+0 0  9997,2 39375   3.7172  83.1082 0000806  66.7567 172.9024  1.00270382 37291,1.00270382,8.06e-05,GSO
39460,SES-8,2013,1436.09,3138.0,+,0.06,Active,1,GSO,USA,SES,Commercial,Communications,Falcon,1 39460U 13071A   24020.54899116 -.00000265  00000+0  00000+0 0  9997,2 39460   0.0549 255.6739 0000977  50.3735 105.9972  1.00271797 35617,1.00271797,9.77e-05,GEO
39476,INMARSAT 5-F1,2013,1436.11,6070.0,+,0.02,Active,1,GSO,Kazakhstan,INMARSAT,Commercial,Communications,Proton,1 39476U 13073A   24020.47340804  .00000032  00000+0  00000+0 0  9994,2 39476   0.0183  61.5891 0000098 287.1453   3.6199  1.00271782 36779,1.00271782,9.8e-06,GEO
39481,TKSAT-1 (TUPAC KATARI),2013,1436.09,5000.0,+,0.02,Active,1,GSO,PRC,Bolivia,Government,Communications,Long March,1 39481U 13075A   24020.58679869 -.00000190  00000+0  00000+0 0  9996,2 39481   0.0228 135.3795 0003387 164.5132 303.5887  1.00272067 36788,1.00272067,0.0003387,GEO
39487,EXPRESS-AM5,2013,1436.11,3400.0,+,0.01,Active,1,GSO,Kazakhstan,Russia/USSR,Commercial,Communications,Proton,1 39487U 13077A   24020.58406895 -.00000276  00000+0  00000+0 0  9996,2 39487   0.0129 330.9153 0001949   5.7832 133.0270  1.00270169 37559,1.00270169,0.0001949,GEO
39498,GSAT-14,2014,1436.1,1982.0,+,0.01,Active,1,GSO,India,India,Government,Communications,GSLV,1 39498U 14001A   24020.47567064 -.00000073  00000+0  00000+0 0  9995,2 39498   0.0840 268.3421 0007108  11.2254  85.0008  1.00271487 36576,1.00271487,0.0007108,GEO
39500,THAICOM 6,2014,1436.09,3325.0,+,0.06,Active,1,GSO,USA,Thailand,Commercial,Communications,Falcon,1 39500U 14002A   24020.47654087 -.00000117  00000+0  00000+0 0  9991,2 39500   0.0665 110.0449 0000884 184.4629  74.8481  1.00272492 36647,1.00272492,8.84e-05,GEO
39504,TDRS 12,2014,1436.15,3454.0,+,3.56,Active,1,GSO,USA,USA,Government,Communications,Atlas,1 39504U 14004A   24020.42099418 -.00000263  00000+0  00000+0 0  9995,2 39504   3.5566 359.7829 0002963 243.5570 346.5954  1.00267893 35467,1.00267893,0.0002963,GSO
39509,ATHENA-FIDUS,2014,1436.07,3080.0,+,0.02,Active,1,GSO,French Guiana,France/Italy,Government/Military,Communications,Ariane,1 39509U 14006B   24020.18205580  .00000158  00000+0  00000+0 0  9996,2 39509   0.0247 116.4193 0001248 188.0953 277.8606  1.00270385 36264,1.00270385,0.0001248,GEO
39522,TURKSAT 4A,2014,1436.05,4869.0,+,0.08,Active,1,GSO,Kazakhstan,Turkey,Commercial,Communications,Proton,1 39522U 14007A   24020.46931799  .00000151  00000+0  00000+0 0  9994,2 39522   0.0774 261.5813 0005026  19.3394  49.3674  1.00268315 36164,1.00268315,0.0005026,GEO
39612,EXPRESS-AT1,2014,1436.11,1726.0,+,0.02,Active,1,GSO,Kazakhstan,Russia/USSR,Commercial,Communications,Proton,1 39612U 14010A   24020.40039595  .00000082  00000+0  00000+0 0  9998,2 39612   0.0222  50.9159 0000432 263.5155   4.9831  1.00273428 36005,1.00273428,4.32e-05,GEO
39613,EXPRESS-AT2,2014,1436.11,1427.0,+,0.02,Active,1,GSO,Kazakhstan,Russia/USSR,Commercial,Communications,Proton,1 39613U 14010B   24020.57688067 -.00000277  00000+0  00000+0 0  9998,2 39613   0.0327 275.5036 0001353 359.6415 191.8027  1.00271269 35698,1.00271269,0.0001353,GEO
39616,AMAZONAS 4A,2014,1436.06,2938.0,P,0.04,Active,1,GSO,French Guiana,Spain,Commercial,Communications,Ariane,1 39616U 14011A   24020.44625694 -.00000248  00000+0  00000+0 0  9993,2 39616   0.0421 207.4841 0003868  76.8604 281.5883  1.00274020 35892,1.0027402,0.0003868,GEO
39617,ASTRA 5B,2014,1436.07,5724.0,+,0.09,Active,1,GSO,French Guiana,SES,Commercial,Communications,Ariane,1 39617U 14011B   24020.25080380  .00000141  00000+0  00000+0 0  9991,2 39617   0.0911 295.8340 0004684 356.8992 300.1733  1.00268816 35854,1.00268816,0.0004684,GEO
39635,IRNSS-1B,2014,1436.09,1432.0,+,29.28,Active,1,GSO,India,India,Government,Navigation (Global or Regional Positioning),PSLV,1 39635U 14017A   24016.74756194  .00000122  00000+0  00000+0 0  9998,2 39635  29.2824 255.3927 0016955 180.6858   3.8030  1.00272328 35939,1.00272328,0.0016955,GSO
39728,KAZSAT-3,2014,1436.12,-1.0,+,0.01,Active,1,GSO,Kazakhstan,Kazakhstan,Commercial,Communications,Proton,1 39728U 14023B   24020.40091809  .00000065  00000+0  00000+0 0  9997,2 39728   0.0141  54.0545 0000314 296.9420 331.1095  1.00270274 33630,1.00270274,3.14e-05,GEO
39773,EUTELSAT 3B,2014,1436.1,5967.0,+,0.06,Active,1,GSO,Sea Launch Platform,EUTELSAT,Commercial,Communications,Zenit,1 39773U 14030A   24020.38995322  .00000024  00000+0  00000+0 0  9990,2 39773   0.0604  18.0271 0004964 223.3579  21.3249  1.00271958 35253,1.00271958,0.0004964,GEO
40107,ASIASAT 8 (AMOS-7),2014,1436.1,4500.0,+,0.05,Active,1,GSO,USA,ASIASAT,Commercial,Communications,Falcon,1 40107U 14046A   24020.24532135 -.00000029  00000+0  00000+0 0  9990,2 40107   0.0490 258.9502 0002099  44.3964 260.1920  1.00271878 93330,1.00271878,0.0002099,GEO
40146,OPTUS 10,2014,1436.1,3270.0,+,0.05,Active,1,GSO,French Guiana,Australia,Commercial,Communications,Ariane,1 40146U 14054A   24019.70410823 -.00000143  00000+0  00000+0 0  9997,2 40146   0.0886 344.4605 0002863 290.7001 252.8824  1.00272007 34213,1.00272007,0.0002863,GEO
40147,MEASAT-3B,2014,1436.11,5800.0,+,0.03,Active,1,GSO,French Guiana,Malaysia,Commercial,Communications,Ariane,1 40147U 14054B   24019.77271725 -.00000237  00000+0  00000+0 0  9995,2 40147   0.0276  10.3491 0002254 346.8722 131.1077  1.00272095 34100,1.00272095,0.0002254,GEO
40258,LUCH (OLYMP-K 1),2014,1436.09,-1.0,+,0.04,Active,1,GSO,Kazakhstan,Russia/USSR,Military,Communications,Proton,1 40258U 14058A   24020.74386300 -.00000137  00000+0  00000+0 0  9996,2 40258   0.0357 110.2783 0000904 210.5267  48.4991  1.00271521 34139,1.00271521,9.04e-05,GEO
40267,HIMAWARI-8,2014,1436.12,3500.0,+,0.04,Active,1,GSO,Japan,Japan,Government,Earth Observation,H2A,1 40267U 14060A   24020.58406815 -.00000272  00000+0  00000+0 0  9995,2 40267   0.0355 191.6159 0001183 100.8233 177.9126  1.00270136 33959,1.00270136,0.0001183,GEO
40269,IRNSS-1C,2014,1436.15,1425.0,+,4.3,Active,1,GSO,India,India,Government,Navigation (Global or Regional Positioning),PSLV,1 40269U 14061A   24020.33417162 -.00000161  00000+0  00000+0 0  9995,2 40269   4.3017 108.7115 0017684   1.3445 212.3805  1.00275182 33872,1.00275182,0.0017684,GSO
40271,INTELSAT 30 (IS-30),2014,1436.1,6220.0,+,0.01,Active,1,GSO,French Guiana,INTELSAT,Commercial,Communications,Ariane,1 40271U 14062A   24019.34909826 -.00000145  00000+0  00000+0 0  9993,2 40271   0.0090  40.3883 0000984 317.8485 150.5793  1.00271487 33778,1.00271487,9.84e-05,GEO
40272,ARSAT 1,2014,1436.12,3000.0,+,0.05,Active,1,GSO,French Guiana,Argentina,Commercial,Communications,Ariane,1 40272U 14062B   24020.05697194 -.00000255  00000+0  00000+0 0  9998,2 40272   0.0488 290.3168 0002021 351.4562 145.8460  1.00271826 33794,1.00271826,0.0002021,GEO
